{
  "norad_id": 44780,
  "name": "NINGXIA-1 2",
  "history": [
    {
      "epoch": "2026-03-28T17:10:49.564416",
      "apogee_km": 891.4941630487037,
      "perigee_km": 881.9538023090299,
      "latitude_deg": -12.586147069532766,
      "longitude_deg": 166.7217382399831,
      "semi_major_axis_km": 7264.860982678866,
      "eccentricity": 0.00065661,
      "inclination_deg": 45.0075,
      "raan_deg": 179.7886,
      "arg_perigee_deg": 135.4053,
      "mean_anomaly_deg": 224.731,
      "mean_motion_rev_day": 14.02044505
    },
    {
      "epoch": "2026-03-29T05:09:06.056352",
      "apogee_km": 891.4942546134071,
      "perigee_km": 881.9496829002546,
      "latitude_deg": 44.456833610446196,
      "longitude_deg": -145.39327072002925,
      "semi_major_axis_km": 7264.85896875683,
      "eccentricity": 0.0006569,
      "inclination_deg": 45.0074,
      "raan_deg": 177.5594,
      "arg_perigee_deg": 137.9398,
      "mean_anomaly_deg": 222.1941,
      "mean_motion_rev_day": 14.02045088
    }
  ]
}